<?xml version="1.0" encoding="UTF-8"?>
<ndm xmlns:xsi="http://www.w3.org/2001/XMLSchema-instance" xsi:noNamespaceSchemaLocation="https://sanaregistry.org/r/ndmxml_unqualified/ndmxml-2.0.0-master-2.0.xsd">
<omm id="CCSDS_OMM_VERS" version="2.0">
<header><CREATION_DATE/><ORIGINATOR/></header><body><segment><metadata><OBJECT_NAME>STARLINK-4486</OBJECT_NAME><OBJECT_ID>2022-101P</OBJECT_ID><CENTER_NAME>EARTH</CENTER_NAME><REF_FRAME>TEME</REF_FRAME><TIME_SYSTEM>UTC</TIME_SYSTEM><MEAN_ELEMENT_THEORY>SGP4</MEAN_ELEMENT_THEORY></metadata><data><meanElements><EPOCH>2022-08-29T14:00:01.000224</EPOCH><MEAN_MOTION>15.76797769</MEAN_MOTION><ECCENTRICITY>.0003423</ECCENTRICITY><INCLINATION>53.2175</INCLINATION><RA_OF_ASC_NODE>106.2854</RA_OF_ASC_NODE><ARG_OF_PERICENTER>355.8292</ARG_OF_PERICENTER><MEAN_ANOMALY>176.8014</MEAN_ANOMALY></meanElements><tleParameters><EPHEMERIS_TYPE>0</EPHEMERIS_TYPE><CLASSIFICATION_TYPE>U</CLASSIFICATION_TYPE><NORAD_CAT_ID>53540</NORAD_CAT_ID><ELEMENT_SET_NO>999</ELEMENT_SET_NO><REV_AT_EPOCH>130</REV_AT_EPOCH><BSTAR>-.82128E-2</BSTAR><MEAN_MOTION_DOT>-.1198261E-1</MEAN_MOTION_DOT><MEAN_MOTION_DDOT>0</MEAN_MOTION_DDOT></tleParameters></data></segment></body></omm>
<omm id="CCSDS_OMM_VERS" version="2.0">
<header><CREATION_DATE/><ORIGINATOR/></header><body><segment><metadata><OBJECT_NAME>STARLINK-4485</OBJECT_NAME><OBJECT_ID>2022-101Q</OBJECT_ID><CENTER_NAME>EARTH</CENTER_NAME><REF_FRAME>TEME</REF_FRAME><TIME_SYSTEM>UTC</TIME_SYSTEM><MEAN_ELEMENT_THEORY>SGP4</MEAN_ELEMENT_THEORY></metadata><data><meanElements><EPOCH>2022-08-29T14:00:01.000224</EPOCH><MEAN_MOTION>15.76726490</MEAN_MOTION><ECCENTRICITY>.0003255</ECCENTRICITY><INCLINATION>53.2176</INCLINATION><RA_OF_ASC_NODE>106.2891</RA_OF_ASC_NODE><ARG_OF_PERICENTER>1.1684</ARG_OF_PERICENTER><MEAN_ANOMALY>169.4257</MEAN_ANOMALY></meanElements><tleParameters><EPHEMERIS_TYPE>0</EPHEMERIS_TYPE><CLASSIFICATION_TYPE>U</CLASSIFICATION_TYPE><NORAD_CAT_ID>53541</NORAD_CAT_ID><ELEMENT_SET_NO>999</ELEMENT_SET_NO><REV_AT_EPOCH>130</REV_AT_EPOCH><BSTAR>-.82332E-2</BSTAR><MEAN_MOTION_DOT>-.1197395E-1</MEAN_MOTION_DOT><MEAN_MOTION_DDOT>0</MEAN_MOTION_DDOT></tleParameters></data></segment></body></omm>
<omm id="CCSDS_OMM_VERS" version="2.0">
<header><CREATION_DATE/><ORIGINATOR/></header><body><segment><metadata><OBJECT_NAME>STARLINK-4489</OBJECT_NAME><OBJECT_ID>2022-101R</OBJECT_ID><CENTER_NAME>EARTH</CENTER_NAME><REF_FRAME>TEME</REF_FRAME><TIME_SYSTEM>UTC</TIME_SYSTEM><MEAN_ELEMENT_THEORY>SGP4</MEAN_ELEMENT_THEORY></metadata><data><meanElements><EPOCH>2022-08-29T14:00:01.000224</EPOCH><MEAN_MOTION>15.76830082</MEAN_MOTION><ECCENTRICITY>.0003238</ECCENTRICITY><INCLINATION>53.2175</INCLINATION><RA_OF_ASC_NODE>106.2834</RA_OF_ASC_NODE><ARG_OF_PERICENTER>1.8367</ARG_OF_PERICENTER><MEAN_ANOMALY>171.8231</MEAN_ANOMALY></meanElements><tleParameters><EPHEMERIS_TYPE>0</EPHEMERIS_TYPE><CLASSIFICATION_TYPE>U</CLASSIFICATION_TYPE><NORAD_CAT_ID>53542</NORAD_CAT_ID><ELEMENT_SET_NO>999</ELEMENT_SET_NO><REV_AT_EPOCH>130</REV_AT_EPOCH><BSTAR>-.81946E-2</BSTAR><MEAN_MOTION_DOT>-.1197321E-1</MEAN_MOTION_DOT><MEAN_MOTION_DDOT>0</MEAN_MOTION_DDOT></tleParameters></data></segment></body></omm>
<omm id="CCSDS_OMM_VERS" version="2.0">
<header><CREATION_DATE/><ORIGINATOR/></header><body><segment><metadata><OBJECT_NAME>STARLINK-4297</OBJECT_NAME><OBJECT_ID>2022-101S</OBJECT_ID><CENTER_NAME>EARTH</CENTER_NAME><REF_FRAME>TEME</REF_FRAME><TIME_SYSTEM>UTC</TIME_SYSTEM><MEAN_ELEMENT_THEORY>SGP4</MEAN_ELEMENT_THEORY></metadata><data><meanElements><EPOCH>2022-08-29T14:00:01.000224</EPOCH><MEAN_MOTION>15.76778904</MEAN_MOTION><ECCENTRICITY>.0003242</ECCENTRICITY><INCLINATION>53.2175</INCLINATION><RA_OF_ASC_NODE>106.2861</RA_OF_ASC_NODE><ARG_OF_PERICENTER>0.9799</ARG_OF_PERICENTER><MEAN_ANOMALY>171.1461</MEAN_ANOMALY></meanElements><tleParameters><EPHEMERIS_TYPE>0</EPHEMERIS_TYPE><CLASSIFICATION_TYPE>U</CLASSIFICATION_TYPE><NORAD_CAT_ID>53543</NORAD_CAT_ID><ELEMENT_SET_NO>999</ELEMENT_SET_NO><REV_AT_EPOCH>130</REV_AT_EPOCH><BSTAR>-.82145E-2</BSTAR><MEAN_MOTION_DOT>-.1197465E-1</MEAN_MOTION_DOT><MEAN_MOTION_DDOT>0</MEAN_MOTION_DDOT></tleParameters></data></segment></body></omm>
<omm id="CCSDS_OMM_VERS" version="2.0">
<header><CREATION_DATE/><ORIGINATOR/></header><body><segment><metadata><OBJECT_NAME>STARLINK-4303</OBJECT_NAME><OBJECT_ID>2022-101T</OBJECT_ID><CENTER_NAME>EARTH</CENTER_NAME><REF_FRAME>TEME</REF_FRAME><TIME_SYSTEM>UTC</TIME_SYSTEM><MEAN_ELEMENT_THEORY>SGP4</MEAN_ELEMENT_THEORY></metadata><data><meanElements><EPOCH>2022-08-29T14:00:01.000224</EPOCH><MEAN_MOTION>15.76863961</MEAN_MOTION><ECCENTRICITY>.0003167</ECCENTRICITY><INCLINATION>53.2175</INCLINATION><RA_OF_ASC_NODE>106.2814</RA_OF_ASC_NODE><ARG_OF_PERICENTER>359.4405</ARG_OF_PERICENTER><MEAN_ANOMALY>175.2417</MEAN_ANOMALY></meanElements><tleParameters><EPHEMERIS_TYPE>0</EPHEMERIS_TYPE><CLASSIFICATION_TYPE>U</CLASSIFICATION_TYPE><NORAD_CAT_ID>53544</NORAD_CAT_ID><ELEMENT_SET_NO>999</ELEMENT_SET_NO><REV_AT_EPOCH>130</REV_AT_EPOCH><BSTAR>-.81838E-2</BSTAR><MEAN_MOTION_DOT>-.1197488E-1</MEAN_MOTION_DOT><MEAN_MOTION_DDOT>0</MEAN_MOTION_DDOT></tleParameters></data></segment></body></omm>
<omm id="CCSDS_OMM_VERS" version="2.0">
<header><CREATION_DATE/><ORIGINATOR/></header><body><segment><metadata><OBJECT_NAME>STARLINK-4475</OBJECT_NAME><OBJECT_ID>2022-101U</OBJECT_ID><CENTER_NAME>EARTH</CENTER_NAME><REF_FRAME>TEME</REF_FRAME><TIME_SYSTEM>UTC</TIME_SYSTEM><MEAN_ELEMENT_THEORY>SGP4</MEAN_ELEMENT_THEORY></metadata><data><meanElements><EPOCH>2022-08-29T14:00:01.000224</EPOCH><MEAN_MOTION>15.76812756</MEAN_MOTION><ECCENTRICITY>.000323</ECCENTRICITY><INCLINATION>53.2175</INCLINATION><RA_OF_ASC_NODE>106.2841</RA_OF_ASC_NODE><ARG_OF_PERICENTER>357.7143</ARG_OF_PERICENTER><MEAN_ANOMALY>175.4372</MEAN_ANOMALY></meanElements><tleParameters><EPHEMERIS_TYPE>0</EPHEMERIS_TYPE><CLASSIFICATION_TYPE>U</CLASSIFICATION_TYPE><NORAD_CAT_ID>53545</NORAD_CAT_ID><ELEMENT_SET_NO>999</ELEMENT_SET_NO><REV_AT_EPOCH>130</REV_AT_EPOCH><BSTAR>-.82054E-2</BSTAR><MEAN_MOTION_DOT>-.1197891E-1</MEAN_MOTION_DOT><MEAN_MOTION_DDOT>0</MEAN_MOTION_DDOT></tleParameters></data></segment></body></omm>
<omm id="CCSDS_OMM_VERS" version="2.0">
<header><CREATION_DATE/><ORIGINATOR/></header><body><segment><metadata><OBJECT_NAME>STARLINK-4477</OBJECT_NAME><OBJECT_ID>2022-101V</OBJECT_ID><CENTER_NAME>EARTH</CENTER_NAME><REF_FRAME>TEME</REF_FRAME><TIME_SYSTEM>UTC</TIME_SYSTEM><MEAN_ELEMENT_THEORY>SGP4</MEAN_ELEMENT_THEORY></metadata><data><meanElements><EPOCH>2022-08-29T14:00:01.000224</EPOCH><MEAN_MOTION>15.91750153</MEAN_MOTION><ECCENTRICITY>.0030064</ECCENTRICITY><INCLINATION>53.2176</INCLINATION><RA_OF_ASC_NODE>105.6863</RA_OF_ASC_NODE><ARG_OF_PERICENTER>73.0851</ARG_OF_PERICENTER><MEAN_ANOMALY>38.3616</MEAN_ANOMALY></meanElements><tleParameters><EPHEMERIS_TYPE>0</EPHEMERIS_TYPE><CLASSIFICATION_TYPE>U</CLASSIFICATION_TYPE><NORAD_CAT_ID>53546</NORAD_CAT_ID><ELEMENT_SET_NO>999</ELEMENT_SET_NO><REV_AT_EPOCH>130</REV_AT_EPOCH><BSTAR>-.37172E-2</BSTAR><MEAN_MOTION_DOT>-.1299008E-1</MEAN_MOTION_DOT><MEAN_MOTION_DDOT>.49097E-3</MEAN_MOTION_DDOT></tleParameters></data></segment></body></omm>
<omm id="CCSDS_OMM_VERS" version="2.0">
<header><CREATION_DATE/><ORIGINATOR/></header><body><segment><metadata><OBJECT_NAME>STARLINK-4474</OBJECT_NAME><OBJECT_ID>2022-101W</OBJECT_ID><CENTER_NAME>EARTH</CENTER_NAME><REF_FRAME>TEME</REF_FRAME><TIME_SYSTEM>UTC</TIME_SYSTEM><MEAN_ELEMENT_THEORY>SGP4</MEAN_ELEMENT_THEORY></metadata><data><meanElements><EPOCH>2022-08-29T14:00:01.000224</EPOCH><MEAN_MOTION>15.76846647</MEAN_MOTION><ECCENTRICITY>.0003286</ECCENTRICITY><INCLINATION>53.2175</INCLINATION><RA_OF_ASC_NODE>106.2821</RA_OF_ASC_NODE><ARG_OF_PERICENTER>357.6917</ARG_OF_PERICENTER><MEAN_ANOMALY>176.4825</MEAN_ANOMALY></meanElements><tleParameters><EPHEMERIS_TYPE>0</EPHEMERIS_TYPE><CLASSIFICATION_TYPE>U</CLASSIFICATION_TYPE><NORAD_CAT_ID>53547</NORAD_CAT_ID><ELEMENT_SET_NO>999</ELEMENT_SET_NO><REV_AT_EPOCH>130</REV_AT_EPOCH><BSTAR>-.81926E-2</BSTAR><MEAN_MOTION_DOT>-.1197882E-1</MEAN_MOTION_DOT><MEAN_MOTION_DDOT>0</MEAN_MOTION_DDOT></tleParameters></data></segment></body></omm>
<omm id="CCSDS_OMM_VERS" version="2.0">
<header><CREATION_DATE/><ORIGINATOR/></header><body><segment><metadata><OBJECT_NAME>STARLINK-4513</OBJECT_NAME><OBJECT_ID>2022-101X</OBJECT_ID><CENTER_NAME>EARTH</CENTER_NAME><REF_FRAME>TEME</REF_FRAME><TIME_SYSTEM>UTC</TIME_SYSTEM><MEAN_ELEMENT_THEORY>SGP4</MEAN_ELEMENT_THEORY></metadata><data><meanElements><EPOCH>2022-08-29T14:00:01.000224</EPOCH><MEAN_MOTION>15.76932333</MEAN_MOTION><ECCENTRICITY>.0003364</ECCENTRICITY><INCLINATION>53.2175</INCLINATION><RA_OF_ASC_NODE>106.2775</RA_OF_ASC_NODE><ARG_OF_PERICENTER>351.6702</ARG_OF_PERICENTER><MEAN_ANOMALY>185.0485</MEAN_ANOMALY></meanElements><tleParameters><EPHEMERIS_TYPE>0</EPHEMERIS_TYPE><CLASSIFICATION_TYPE>U</CLASSIFICATION_TYPE><NORAD_CAT_ID>53548</NORAD_CAT_ID><ELEMENT_SET_NO>999</ELEMENT_SET_NO><REV_AT_EPOCH>130</REV_AT_EPOCH><BSTAR>-.8162E-2</BSTAR><MEAN_MOTION_DOT>-.1198039E-1</MEAN_MOTION_DOT><MEAN_MOTION_DDOT>0</MEAN_MOTION_DDOT></tleParameters></data></segment></body></omm>

</ndm>
